CRE (WAAS/PRN 138)      
1 28868U 05036A   22320.65581397 -.00000060  00000+0  00000+0 0  9994
2 28868   0.9426  92.1421 0001088 118.5608 333.7902  1.00271609 33335
IOR-W (EGNOS/PRN 126)   
1 28899U 05044A   22320.83341345  .00000025  00000+0  00000+0 0  9994
2 28899   3.6212  38.6777 0003031 207.3604 173.7759  1.00271571 62404
QZS-1 (QZSS/PRN 183)    
1 37158U 10045A   22321.34861900 -.00000055  00000+0  00000+0 0  9994
2 37158  42.4959 131.2794 0750451 270.3369 278.2591  1.00270564 44601
GSAT-8 (GAGAN/PRN 127)  
1 37605U 11022A   22319.87746587  .00000097  00000+0  00000+0 0  9990
2 37605   0.0144 258.9059 0008273 353.0837 173.9313  1.00273020 40083
LUCH 5A (SDCM/PRN 140)  
1 37951U 11074B   22320.71046640 -.00000031  00000+0  00000+0 0  9998
2 37951   5.3995  94.8084 0003164 120.4192 263.1643  1.00271101 40073
SES-5 (EGNOS/PRN 136)   
1 38652U 12036A   22320.53465469  .00000047  00000+0  00000+0 0  9996
2 38652   0.0566 293.8922 0002100 306.9961  12.1817  1.00272255 31362
GSAT-10 (GAGAN/PRN 128) 
1 38779U 12051B   22320.33504696 -.00000153  00000+0  00000+0 0  9996
2 38779   0.0678 101.3702 0004295 157.0610   0.6162  1.00272222 36991
LUCH 5B (SDCM/PRN 125)  
1 38977U 12061A   22320.10003164 -.00000121  00000+0  00000+0 0  9991
2 38977   7.6193  61.4551 0003861 125.0331 248.3548  1.00272705 37050
ASTRA 5B (EGNOS/PRN 123)
1 39617U 14011B   22319.75091479  .00000167  00000+0  00000+0 0  9994
2 39617   0.0705 303.6144 0004209 280.7208 132.3558  1.00270154 31532
LUCH 5V (SDCM/PRN 141)  
1 39727U 14023A   22320.76782094 -.00000255  00000+0  00000+0 0  9991
2 39727   1.8608  76.8214 0003301 181.3634 168.8416  1.00271049 31231
GSAT-15 (GAGAN/PRN 139) 
1 41028U 15065A   22321.12627962 -.00000244  00000+0  00000+0 0  9996
2 41028   0.0092 103.7282 0002273 106.4754 344.9584  1.00271203 25743
E 117 W B (WAAS/PRN 131)
1 41589U 16038B   22321.13074999  .00000003  00000+0  00000+0 0  9998
2 41589   0.0149 129.0270 0000392   8.8352 208.3921  1.00271758 23588
SES-15 (WAAS/PRN 133)   
1 42709U 17026A   22321.25811156  .00000075  00000+0  00000+0 0  9997
2 42709   0.0216 350.1204 0000322 259.5112 130.4622  1.00267019 21074
QZS-2 (QZSS/PRN 184)    
1 42738U 17028A   22320.70323170 -.00000203  00000+0  00000+0 0  9998
2 42738  41.5233 262.0138 0763460 269.0855 276.3917  1.00294471 20024
QZS-3 (QZSS/PRN 189)    
1 42917U 17048A   22320.58859669 -.00000335  00000+0  00000+0 0  9998
2 42917   0.0539 183.0392 0002294  72.9206 138.5882  1.00268377 19134
QZS-4 (QZSS/PRN 185)    
1 42965U 17062A   22321.45210358 -.00000309  00000+0  00000+0 0  9991
2 42965  40.7302   0.1577 0750858 270.8178  86.4462  1.00264863 18694
GALAXY 30 (WAAS/PRN 135)
1 46114U 20056C   22320.42546876  .00000050  00000+0  00000+0 0  9993
2 46114   0.0138 303.0277 0002151 287.2548 213.3966  1.00271697  8165
